{"fetched_at":"2026-03-30T06:02:59Z","count":15439,"tles":[{"name":"STARLINK-11583 [DTC]","line1":"1 62991U 25031L   26087.85416276  .00266406  00000+0  20029-2 0  9998","line2":"2 62991  43.0022 246.1942 0004719 269.9083  90.1244 15.70962789 65764","category":"Starlink"}]}